{"type": "FeatureCollection", "features": [ {"type": "Feature", "properties": {"norad_id": 36402, "name": "COSMOS 2460 (732)", "group": "gnss", "lat": -15.13662040281386, "lon": 147.5799071818055, "alt_km": 19131.26124135133, "timestamp": "2025-12-20T03:42:47.635329+00:00", "meta": {"OBJECT_NAME": "COSMOS 2460 (732)", "OBJECT_ID": "2010-007C", "EPOCH": "2025-12-19T13:42:43.098624", "MEAN_MOTION": 2.131063, "ECCENTRICITY": 0.0002543, "INCLINATION": 65.526, "RA_OF_ASC_NODE": 320.5423, "ARG_OF_PERICENTER": 279.9868, "MEAN_ANOMALY": 189.087, "EPHEMERIS_TYPE": 0, "CLASSIFICATION_TYPE": "U", "NORAD_CAT_ID": 36402, "ELEMENT_SET_NO": 999, "REV_AT_EPOCH": 12290, "BSTAR": 0, "MEAN_MOTION_DOT": -5.7e-07, "MEAN_MOTION_DDOT": 0}, "tle": {"line1": "1 36402U 10007C   25353.57133216 -.00000057  00000+0  00000+0 0  9990", "line2": "2 36402  65.5260 320.5423 0002543 279.9868 189.0870  2.13106300122906"}}, "geometry": {"type": "Point", "coordinates": [147.5799071818055, -15.13662040281386]}}, {"type": "Feature", "properties": {"norad_id": 36585, "name": "GPS BIIF-1  (PRN 25)", "group": "gnss", "lat": 32.20775597219032, "lon": 8.860533375829508, "alt_km": 20081.606108640965, "timestamp": "2025-12-20T03:42:47.635341+00:00", "meta": {"OBJECT_NAME": "GPS BIIF-1  (PRN 25)", "OBJECT_ID": "2010-022A", "EPOCH": "2025-12-19T06:21:16.820064", "MEAN_MOTION": 2.00553606, "ECCENTRICITY": 0.0126373, "INCLINATION": 54.2991, "RA_OF_ASC_NODE": 215.8107, "ARG_OF_PERICENTER": 65.1538, "MEAN_ANOMALY": 149.9258, "EPHEMERIS_TYPE": 0, "CLASSIFICATION_TYPE": "U", "NORAD_CAT_ID": 36585, "ELEMENT_SET_NO": 999, "REV_AT_EPOCH": 11398, "BSTAR": 0, "MEAN_MOTION_DOT": 8.2e-07, "MEAN_MOTION_DDOT": 0}, "tle": {"line1": "1 36585U 10022A   25353.26477801  .00000082  00000+0  00000+0 0  9993", "line2": "2 36585  54.2991 215.8107 0126373  65.1538 149.9258  2.00553606113980"}}, "geometry": {"type": "Point", "coordinates": [8.860533375829508, 32.20775597219032]}}, {"type": "Feature", "properties": {"norad_id": 36828, "name": "BEIDOU-2 IGSO-1 (C06)", "group": "gnss", "lat": 54.15597256936061, "lon": -109.50066337738618, "alt_km": 35912.99932930496, "timestamp": "2025-12-20T03:42:47.635354+00:00", "meta": {"OBJECT_NAME": "BEIDOU-2 IGSO-1 (C06)", "OBJECT_ID": "2010-036A", "EPOCH": "2025-12-14T21:38:21.623424", "MEAN_MOTION": 1.00275796, "ECCENTRICITY": 0.00512569, "INCLINATION": 54.2866, "RA_OF_ASC_NODE": 164.6279, "ARG_OF_PERICENTER": 215.8888, "MEAN_ANOMALY": 135.7931, "EPHEMERIS_TYPE": 0, "CLASSIFICATION_TYPE": "U", "NORAD_CAT_ID": 36828, "ELEMENT_SET_NO": 999, "REV_AT_EPOCH": 5624, "BSTAR": 0, "MEAN_MOTION_DOT": -2.4e-07, "MEAN_MOTION_DDOT": 0}, "tle": {"line1": "1 36828U 10036A   25348.90163916 -.00000024  00000+0  00000+0 0  9999", "line2": "2 36828  54.2866 164.6279 0051256 215.8888 135.7931  1.00275796 56247"}}, "geometry": {"type": "Point", "coordinates": [-109.50066337738618, 54.15597256936061]}}, {"type": "Feature", "properties": {"norad_id": 37210, "name": "BEIDOU-2 G4 (C04)", "group": "gnss", "lat": -2.6428129057889453, "lon": -55.19196450460172, "alt_km": 35753.615516417136, "timestamp": "2025-12-20T03:42:47.635368+00:00", "meta": {"OBJECT_NAME": "BEIDOU-2 G4 (C04)", "OBJECT_ID": "2010-057A", "EPOCH": "2025-12-19T19:09:33.042240", "MEAN_MOTION": 1.00272058, "ECCENTRICITY": 0.0010427, "INCLINATION": 3.2013, "RA_OF_ASC_NODE": 69.9127, "ARG_OF_PERICENTER": 192.6377, "MEAN_ANOMALY": 273.5616, "EPHEMERIS_TYPE": 0, "CLASSIFICATION_TYPE": "U", "NORAD_CAT_ID": 37210, "ELEMENT_SET_NO": 999, "REV_AT_EPOCH": 5549, "BSTAR": 0, "MEAN_MOTION_DOT": -9e-07, "MEAN_MOTION_DDOT": 0}, "tle": {"line1": "1 37210U 10057A   25353.79829910 -.00000090  00000+0  00000+0 0  9997", "line2": "2 37210   3.2013  69.9127 0010427 192.6377 273.5616  1.00272058 55495"}}, "geometry": {"type": "Point", "coordinates": [-55.19196450460172, -2.6428129057889453]}}, {"type": "Feature", "properties": {"norad_id": 37256, "name": "BEIDOU-2 IGSO-2 (C07)", "group": "gnss", "lat": -15.454299879774736, "lon": -100.41361331231137, "alt_km": 35894.858766475074, "timestamp": "2025-12-20T03:42:47.635380+00:00", "meta": {"OBJECT_NAME": "BEIDOU-2 IGSO-2 (C07)", "OBJECT_ID": "2010-068A", "EPOCH": "2025-12-19T17:11:58.178112", "MEAN_MOTION": 1.00284373, "ECCENTRICITY": 0.0048411, "INCLINATION": 47.8732, "RA_OF_ASC_NODE": 274.0632, "ARG_OF_PERICENTER": 216.3467, "MEAN_ANOMALY": 324.0365, "EPHEMERIS_TYPE": 0, "CLASSIFICATION_TYPE": "U", "NORAD_CAT_ID": 37256, "ELEMENT_SET_NO": 999, "REV_AT_EPOCH": 5499, "BSTAR": 0, "MEAN_MOTION_DOT": -1.93e-06, "MEAN_MOTION_DDOT": 0}, "tle": {"line1": "1 37256U 10068A   25353.71664558 -.00000193  00000+0  00000+0 0  9990", "line2": "2 37256  47.8732 274.0632 0048411 216.3467 324.0365  1.00284373 54995"}}, "geometry": {"type": "Point", "coordinates": [-100.41361331231137, -15.454299879774736]}}, {"type": "Feature", "properties": {"norad_id": 37384, "name": "BEIDOU-2 IGSO-3 (C08)", "group": "gnss", "lat": -26.49934681352438, "lon": -122.84768863467465, "alt_km": 35652.83133493886, "timestamp": "2025-12-20T03:42:47.635392+00:00", "meta": {"OBJECT_NAME": "BEIDOU-2 IGSO-3 (C08)", "OBJECT_ID": "2011-013A", "EPOCH": "2025-12-19T15:24:21.799872", "MEAN_MOTION": 1.00269211, "ECCENTRICITY": 0.0035344, "INCLINATION": 62.1523, "RA_OF_ASC_NODE": 41.8505, "ARG_OF_PERICENTER": 187.8464, "MEAN_ANOMALY": 197.2749, "EPHEMERIS_TYPE": 0, "CLASSIFICATION_TYPE": "U", "NORAD_CAT_ID": 37384, "ELEMENT_SET_NO": 999, "REV_AT_EPOCH": 5386, "BSTAR": 0, "MEAN_MOTION_DOT": -1.68e-06, "MEAN_MOTION_DDOT": 0}, "tle": {"line1": "1 37384U 11013A   25353.64191898 -.00000168  00000+0  00000+0 0  9999", "line2": "2 37384  62.1523  41.8505 0035344 187.8464 197.2749  1.00269211 53869"}}, "geometry": {"type": "Point", "coordinates": [-122.84768863467465, -26.49934681352438]}}, {"type": "Feature", "properties": {"norad_id": 37605, "name": "GSAT-8 (GAGAN/PRN 127)", "group": "gnss", "lat": 1.4942349908540595, "lon": -160.32047038856822, "alt_km": 35773.1919117927, "timestamp": "2025-12-20T03:42:47.635404+00:00", "meta": {"OBJECT_NAME": "GSAT-8 (GAGAN/PRN 127)", "OBJECT_ID": "2011-022A", "EPOCH": "2025-12-19T18:39:43.397568", "MEAN_MOTION": 1.00270832, "ECCENTRICITY": 0.0008747, "INCLINATION": 1.6669, "RA_OF_ASC_NODE": 84.1218, "ARG_OF_PERICENTER": 185.2037, "MEAN_ANOMALY": 154.3076, "EPHEMERIS_TYPE": 0, "CLASSIFICATION_TYPE": "U", "NORAD_CAT_ID": 37605, "ELEMENT_SET_NO": 999, "REV_AT_EPOCH": 5141, "BSTAR": 0, "MEAN_MOTION_DOT": 1.08e-06, "MEAN_MOTION_DDOT": 0}, "tle": {"line1": "1 37605U 11022A   25353.77758562  .00000108  00000+0  00000+0 0  9999", "line2": "2 37605   1.6669  84.1218 0008747 185.2037 154.3076  1.00270832 51417"}}, "geometry": {"type": "Point", "coordinates": [-160.32047038856822, 1.4942349908540595]}}, {"type": "Feature", "properties": {"norad_id": 37763, "name": "BEIDOU-2 IGSO-4 (C09)", "group": "gnss", "lat": 50.522541513527855, "lon": -132.80560890223018, "alt_km": 36364.03243588997, "timestamp": "2025-12-20T03:42:47.635417+00:00", "meta": {"OBJECT_NAME": "BEIDOU-2 IGSO-4 (C09)", "OBJECT_ID": "2011-038A", "EPOCH": "2025-12-17T23:29:21.564384", "MEAN_MOTION": 1.00281312, "ECCENTRICITY": 0.01493143, "INCLINATION": 54.5836, "RA_OF_ASC_NODE": 167.2999, "ARG_OF_PERICENTER": 230.2426, "MEAN_ANOMALY": 136.1954, "EPHEMERIS_TYPE": 0, "CLASSIFICATION_TYPE": "U", "NORAD_CAT_ID": 37763, "ELEMENT_SET_NO": 999, "REV_AT_EPOCH": 5283, "BSTAR": 0, "MEAN_MOTION_DOT": 6.5e-07, "MEAN_MOTION_DDOT": 0}, "tle": {"line1": "1 37763U 11038A   25351.97872181  .00000065  00000+0  00000+0 0  9997", "line2": "2 37763  54.5836 167.2999 0149314 230.2426 136.1954  1.00281312 52838"}}, "geometry": {"type": "Point", "coordinates": [-132.80560890223018, 50.522541513527855]}}, {"type": "Feature", "properties": {"norad_id": 37846, "name": "GSAT0101 (GALILEO-PFM)", "group": "gnss", "lat": 38.67106137236512, "lon": 135.335933990146, "alt_km": 23226.662415393184, "timestamp": "2025-12-20T03:42:47.635431+00:00", "meta": {"OBJECT_NAME": "GSAT0101 (GALILEO-PFM)", "OBJECT_ID": "2011-060A", "EPOCH": "2025-12-18T18:24:05.988672", "MEAN_MOTION": 1.70475824, "ECCENTRICITY": 0.000318, "INCLINATION": 57.0514, "RA_OF_ASC_NODE": 346.6564, "ARG_OF_PERICENTER": 319.1021, "MEAN_ANOMALY": 40.8874, "EPHEMERIS_TYPE": 0, "CLASSIFICATION_TYPE": "U", "NORAD_CAT_ID": 37846, "ELEMENT_SET_NO": 999, "REV_AT_EPOCH": 8804, "BSTAR": 0, "MEAN_MOTION_DOT": -7.5e-07, "MEAN_MOTION_DDOT": 0}, "tle": {"line1": "1 37846U 11060A   25352.76673598 -.00000075  00000+0  00000+0 0  9995", "line2": "2 37846  57.0514 346.6564 0003180 319.1021  40.8874  1.70475824 88044"}}, "geometry": {"type": "Point", "coordinates": [135.335933990146, 38.67106137236512]}}, {"type": "Feature", "properties": {"norad_id": 37847, "name": "GSAT0102 (GALILEO-FM2)", "group": "gnss", "lat": 2.271171196267466, "lon": 165.13680545584, "alt_km": 23232.556303797777, "timestamp": "2025-12-20T03:42:47.635443+00:00", "meta": {"OBJECT_NAME": "GSAT0102 (GALILEO-FM2)", "OBJECT_ID": "2011-060B", "EPOCH": "2025-12-18T09:18:10.933920", "MEAN_MOTION": 1.7047603, "ECCENTRICITY": 0.0005099, "INCLINATION": 57.0522, "RA_OF_ASC_NODE": 346.6671, "ARG_OF_PERICENTER": 311.9548, "MEAN_ANOMALY": 220.8374, "EPHEMERIS_TYPE": 0, "CLASSIFICATION_TYPE": "U", "NORAD_CAT_ID": 37847, "ELEMENT_SET_NO": 999, "REV_AT_EPOCH": 8804, "BSTAR": 0, "MEAN_MOTION_DOT": -7.6e-07, "MEAN_MOTION_DDOT": 0}, "tle": {"line1": "1 37847U 11060B   25352.38762655 -.00000076  00000+0  00000+0 0  9998", "line2": "2 37847  57.0522 346.6671 0005099 311.9548 220.8374  1.70476030 88043"}}, "geometry": {"type": "Point", "coordinates": [165.13680545584, 2.271171196267466]}}]}